{"type": "FeatureCollection", "features": [ {"type": "Feature", "properties": {"norad_id": 40238, "name": "COSMOS 2251 DEB", "group": "cosmos-2251-debris", "lat": 41.39527607817482, "lon": 92.20455275092473, "alt_km": 750.2181945443899, "timestamp": "2025-12-03T15:48:03.464260+00:00", "meta": {"OBJECT_NAME": "COSMOS 2251 DEB", "OBJECT_ID": "1993-036BVT", "EPOCH": "2025-12-02T23:17:45.546720", "MEAN_MOTION": 13.25083413, "ECCENTRICITY": 0.05497645, "INCLINATION": 73.9879, "RA_OF_ASC_NODE": 78.5988, "ARG_OF_PERICENTER": 52.4798, "MEAN_ANOMALY": 312.4962, "EPHEMERIS_TYPE": 0, "CLASSIFICATION_TYPE": "U", "NORAD_CAT_ID": 40238, "ELEMENT_SET_NO": 999, "REV_AT_EPOCH": 53907, "BSTAR": 0.0016280905, "MEAN_MOTION_DOT": 1.579e-05, "MEAN_MOTION_DDOT": 0}, "tle": {"line1": "1 40238U 93036BVT 25336.97066605  .00001579  00000+0  16281-2 0  9997", "line2": "2 40238  73.9879  78.5988 0549764  52.4798 312.4962 13.25083413539078"}}, "geometry": {"type": "Point", "coordinates": [92.20455275092473, 41.39527607817482]}}, {"type": "Feature", "properties": {"norad_id": 40239, "name": "COSMOS 2251 DEB", "group": "cosmos-2251-debris", "lat": 58.45077145984138, "lon": -38.97558075942958, "alt_km": 623.4260532443332, "timestamp": "2025-12-03T15:48:03.464269+00:00", "meta": {"OBJECT_NAME": "COSMOS 2251 DEB", "OBJECT_ID": "1993-036BVU", "EPOCH": "2025-12-03T04:06:23.351040", "MEAN_MOTION": 14.61919535, "ECCENTRICITY": 0.00844774, "INCLINATION": 74.0313, "RA_OF_ASC_NODE": 294.1581, "ARG_OF_PERICENTER": 48.0204, "MEAN_ANOMALY": 330.7965, "EPHEMERIS_TYPE": 0, "CLASSIFICATION_TYPE": "U", "NORAD_CAT_ID": 40239, "ELEMENT_SET_NO": 999, "REV_AT_EPOCH": 59471, "BSTAR": 0.00063426596, "MEAN_MOTION_DOT": 3.31e-05, "MEAN_MOTION_DDOT": 0}, "tle": {"line1": "1 40239U 93036BVU 25337.17110360  .00003310  00000+0  63427-3 0  9999", "line2": "2 40239  74.0313 294.1581 0084477  48.0204 330.7965 14.61919535594719"}}, "geometry": {"type": "Point", "coordinates": [-38.97558075942958, 58.45077145984138]}}, {"type": "Feature", "properties": {"norad_id": 40792, "name": "COSMOS 2251 DEB", "group": "cosmos-2251-debris", "lat": 43.61748972192555, "lon": 80.81205388763826, "alt_km": 672.6509894206256, "timestamp": "2025-12-03T15:48:03.464278+00:00", "meta": {"OBJECT_NAME": "COSMOS 2251 DEB", "OBJECT_ID": "1993-036BVV", "EPOCH": "2025-11-22T08:06:07.865856", "MEAN_MOTION": 14.67201811, "ECCENTRICITY": 0.00172349, "INCLINATION": 74.0441, "RA_OF_ASC_NODE": 86.8266, "ARG_OF_PERICENTER": 197.5934, "MEAN_ANOMALY": 193.5273, "EPHEMERIS_TYPE": 0, "CLASSIFICATION_TYPE": "U", "NORAD_CAT_ID": 40792, "ELEMENT_SET_NO": 999, "REV_AT_EPOCH": 62885, "BSTAR": 0.00160322, "MEAN_MOTION_DOT": 9.026e-05, "MEAN_MOTION_DDOT": 0}, "tle": {"line1": "1 40792U 93036BVV 25326.33759104  .00009026  00000+0  16032-2 0  9993", "line2": "2 40792  74.0441  86.8266 0017234 197.5934 193.5273 14.67201811628855"}}, "geometry": {"type": "Point", "coordinates": [80.81205388763826, 43.61748972192555]}}, {"type": "Feature", "properties": {"norad_id": 40793, "name": "COSMOS 2251 DEB", "group": "cosmos-2251-debris", "lat": -35.83730920867066, "lon": 13.028786028589746, "alt_km": 959.5115691109377, "timestamp": "2025-12-03T15:48:03.464287+00:00", "meta": {"OBJECT_NAME": "COSMOS 2251 DEB", "OBJECT_ID": "1993-036BVW", "EPOCH": "2025-11-17T22:59:08.433600", "MEAN_MOTION": 14.0559149, "ECCENTRICITY": 0.02150611, "INCLINATION": 73.9793, "RA_OF_ASC_NODE": 208.5839, "ARG_OF_PERICENTER": 10.058, "MEAN_ANOMALY": 350.4754, "EPHEMERIS_TYPE": 0, "CLASSIFICATION_TYPE": "U", "NORAD_CAT_ID": 40793, "ELEMENT_SET_NO": 999, "REV_AT_EPOCH": 67897, "BSTAR": 0.0015211732, "MEAN_MOTION_DOT": 3.024e-05, "MEAN_MOTION_DDOT": 0}, "tle": {"line1": "1 40793U 93036BVW 25321.95773650  .00003024  00000+0  15212-2 0  9990", "line2": "2 40793  73.9793 208.5839 0215061  10.0580 350.4754 14.05591490678970"}}, "geometry": {"type": "Point", "coordinates": [13.028786028589746, -35.83730920867066]}}, {"type": "Feature", "properties": {"norad_id": 40794, "name": "COSMOS 2251 DEB", "group": "cosmos-2251-debris", "lat": -8.52672118578136, "lon": 140.07408092940594, "alt_km": 597.3327047611692, "timestamp": "2025-12-03T15:48:03.464296+00:00", "meta": {"OBJECT_NAME": "COSMOS 2251 DEB", "OBJECT_ID": "1993-036BVX", "EPOCH": "2025-11-30T04:39:36.279360", "MEAN_MOTION": 14.91253423, "ECCENTRICITY": 0.00103638, "INCLINATION": 73.9758, "RA_OF_ASC_NODE": 149.5129, "ARG_OF_PERICENTER": 264.0956, "MEAN_ANOMALY": 215.1976, "EPHEMERIS_TYPE": 0, "CLASSIFICATION_TYPE": "U", "NORAD_CAT_ID": 40794, "ELEMENT_SET_NO": 999, "REV_AT_EPOCH": 61737, "BSTAR": 0.0047311798, "MEAN_MOTION_DOT": 0.00047418, "MEAN_MOTION_DDOT": 0}, "tle": {"line1": "1 40794U 93036BVX 25334.19416990  .00047418  00000+0  47312-2 0  9993", "line2": "2 40794  73.9758 149.5129 0010363 264.0956 215.1976 14.91253423617370"}}, "geometry": {"type": "Point", "coordinates": [140.07408092940594, -8.52672118578136]}}, {"type": "Feature", "properties": {"norad_id": 40796, "name": "COSMOS 2251 DEB", "group": "cosmos-2251-debris", "lat": 22.256562583474555, "lon": 166.88798677800168, "alt_km": 620.4247029674734, "timestamp": "2025-12-03T15:48:03.464305+00:00", "meta": {"OBJECT_NAME": "COSMOS 2251 DEB", "OBJECT_ID": "1993-036BVZ", "EPOCH": "2025-12-02T06:27:45.283968", "MEAN_MOTION": 14.81470556, "ECCENTRICITY": 0.005597, "INCLINATION": 74.0116, "RA_OF_ASC_NODE": 162.895, "ARG_OF_PERICENTER": 301.3277, "MEAN_ANOMALY": 235.9171, "EPHEMERIS_TYPE": 0, "CLASSIFICATION_TYPE": "U", "NORAD_CAT_ID": 40796, "ELEMENT_SET_NO": 999, "REV_AT_EPOCH": 76003, "BSTAR": 0.00090141, "MEAN_MOTION_DOT": 7.227e-05, "MEAN_MOTION_DDOT": 0}, "tle": {"line1": "1 40796U 93036BVZ 25336.26927412  .00007227  00000+0  90141-3 0  9994", "line2": "2 40796  74.0116 162.8950 0055970 301.3277 235.9171 14.81470556760032"}}, "geometry": {"type": "Point", "coordinates": [166.88798677800168, 22.256562583474555]}}, {"type": "Feature", "properties": {"norad_id": 40797, "name": "COSMOS 2251 DEB", "group": "cosmos-2251-debris", "lat": -24.579756271270863, "lon": -58.19790718029727, "alt_km": 587.2133220440774, "timestamp": "2025-12-03T15:48:03.464314+00:00", "meta": {"OBJECT_NAME": "COSMOS 2251 DEB", "OBJECT_ID": "1993-036BWA", "EPOCH": "2025-11-19T18:43:16.602528", "MEAN_MOTION": 15.10509474, "ECCENTRICITY": 0.00703947, "INCLINATION": 73.92, "RA_OF_ASC_NODE": 143.0892, "ARG_OF_PERICENTER": 60.6639, "MEAN_ANOMALY": 300.156, "EPHEMERIS_TYPE": 0, "CLASSIFICATION_TYPE": "U", "NORAD_CAT_ID": 40797, "ELEMENT_SET_NO": 999, "REV_AT_EPOCH": 64297, "BSTAR": 0.00072810385, "MEAN_MOTION_DOT": 0.00012707, "MEAN_MOTION_DDOT": 0}, "tle": {"line1": "1 40797U 93036BWA 25323.78005327  .00012707  00000+0  72810-3 0  9992", "line2": "2 40797  73.9200 143.0892 0070394  60.6639 300.1560 15.10509474642979"}}, "geometry": {"type": "Point", "coordinates": [-58.19790718029727, -24.579756271270863]}}, {"type": "Feature", "properties": {"norad_id": 40799, "name": "COSMOS 2251 DEB", "group": "cosmos-2251-debris", "lat": -31.110294981088533, "lon": 106.82944465563583, "alt_km": 514.107547807791, "timestamp": "2025-12-03T15:48:03.464323+00:00", "meta": {"OBJECT_NAME": "COSMOS 2251 DEB", "OBJECT_ID": "1993-036BWC", "EPOCH": "2025-12-02T15:52:37.657344", "MEAN_MOTION": 14.9651882, "ECCENTRICITY": 0.01185553, "INCLINATION": 73.9243, "RA_OF_ASC_NODE": 118.8799, "ARG_OF_PERICENTER": 3.136, "MEAN_ANOMALY": 357.0539, "EPHEMERIS_TYPE": 0, "CLASSIFICATION_TYPE": "U", "NORAD_CAT_ID": 40799, "ELEMENT_SET_NO": 999, "REV_AT_EPOCH": 49826, "BSTAR": 0.00041064949, "MEAN_MOTION_DOT": 5.344e-05, "MEAN_MOTION_DDOT": 0}, "tle": {"line1": "1 40799U 93036BWC 25336.66154696  .00005344  00000+0  41065-3 0  9996", "line2": "2 40799  73.9243 118.8799 0118555   3.1360 357.0539 14.96518820498265"}}, "geometry": {"type": "Point", "coordinates": [106.82944465563583, -31.110294981088533]}}, {"type": "Feature", "properties": {"norad_id": 40802, "name": "COSMOS 2251 DEB", "group": "cosmos-2251-debris", "lat": -72.2480468614418, "lon": 107.45300788013091, "alt_km": 600.0831512709228, "timestamp": "2025-12-03T15:48:03.464332+00:00", "meta": {"OBJECT_NAME": "COSMOS 2251 DEB", "OBJECT_ID": "1993-036BWF", "EPOCH": "2025-12-02T06:02:32.408736", "MEAN_MOTION": 14.77446019, "ECCENTRICITY": 0.0063431, "INCLINATION": 74.0395, "RA_OF_ASC_NODE": 173.5857, "ARG_OF_PERICENTER": 274.4204, "MEAN_ANOMALY": 84.9726, "EPHEMERIS_TYPE": 0, "CLASSIFICATION_TYPE": "U", "NORAD_CAT_ID": 40802, "ELEMENT_SET_NO": 999, "REV_AT_EPOCH": 64254, "BSTAR": 0.00074894, "MEAN_MOTION_DOT": 5.484e-05, "MEAN_MOTION_DDOT": 0}, "tle": {"line1": "1 40802U 93036BWF 25336.25176399  .00005484  00000+0  74894-3 0  9991", "line2": "2 40802  74.0395 173.5857 0063431 274.4204  84.9726 14.77446019642540"}}, "geometry": {"type": "Point", "coordinates": [107.45300788013091, -72.2480468614418]}}, {"type": "Feature", "properties": {"norad_id": 40803, "name": "COSMOS 2251 DEB", "group": "cosmos-2251-debris", "lat": -56.47000275294647, "lon": -85.33616477368697, "alt_km": 709.6729586786623, "timestamp": "2025-12-03T15:48:03.464341+00:00", "meta": {"OBJECT_NAME": "COSMOS 2251 DEB", "OBJECT_ID": "1993-036BWG", "EPOCH": "2025-11-28T13:57:57.324672", "MEAN_MOTION": 14.51758448, "ECCENTRICITY": 0.00344541, "INCLINATION": 74.0129, "RA_OF_ASC_NODE": 78.5975, "ARG_OF_PERICENTER": 297.2945, "MEAN_ANOMALY": 62.4709, "EPHEMERIS_TYPE": 0, "CLASSIFICATION_TYPE": "U", "NORAD_CAT_ID": 40803, "ELEMENT_SET_NO": 999, "REV_AT_EPOCH": 58547, "BSTAR": 0.00037309243, "MEAN_MOTION_DOT": 1.482e-05, "MEAN_MOTION_DDOT": 0}, "tle": {"line1": "1 40803U 93036BWG 25332.58191348  .00001482  00000+0  37309-3 0  9999", "line2": "2 40803  74.0129  78.5975 0034454 297.2945  62.4709 14.51758448585473"}}, "geometry": {"type": "Point", "coordinates": [-85.33616477368697, -56.47000275294647]}}]}